ONEWEB-0675             
1 55834U 23029AQ  26095.11984706  .00000141  00000+0  31999-3 0  9998
2 55834  87.9184 319.5474 0001668  73.8615 286.2701 13.19727008149286
ONEWEB-0720             
1 55835U 23029AR  26095.11195082  .00000110  00000+0  24188-3 0  9998
2 55835  87.9182 319.5493 0002107  85.0267 275.1106 13.19727560149204
ONEWEB-0537             
1 56046U 23043A   26095.16151747  .00000163  00000+0  39249-3 0  9996
2 56046  87.9046 243.2832 0001530  97.2022 262.9282 13.16594972149352
ONEWEB-0538             
1 56047U 23043B   26095.15517557  .00000133  00000+0  31447-3 0  9990
2 56047  87.9045 243.2864 0001755  91.0352 269.0980 13.16595659149361
ONEWEB-0546             
1 56048U 23043C   26095.14250953  .00000045  00000+0  84449-4 0  9997
2 56048  87.9050 243.2879 0001033  95.0689 265.0560 13.16596726149355
ONEWEB-0547             
1 56049U 23043D   26095.20146375  .00001475  00000+0  35329-2 0  9996
2 56049  87.9185 258.5126 0001864  93.3376 266.7971 13.21969276148583
ONEWEB-0548             
1 56050U 23043E   26095.16706362  .00000153  00000+0  36563-3 0  9995
2 56050  87.9043 243.2817 0001835 115.5302 244.6018 13.16596040149352
ONEWEB-0549             
1 56051U 23043F   26094.96771796 -.00000442  00000+0 -11033-2 0  9993
2 56051  87.9182 258.5702 0001836  89.6708 270.4636 13.21687580148551
ONEWEB-0550             
1 56052U 23043G   26095.18151570 -.00000391  00000+0 -97906-3 0  9998
2 56052  87.9182 258.5239 0001703 100.5139 259.6187 13.21743317148585
ONEWEB-0551             
1 56053U 23043H   26095.06412831 -.00000144  00000+0 -41598-3 0  9998
2 56053  87.8926 273.8207 0001972  86.5834 273.5522 13.15546889146785
ONEWEB-0552             
1 56054U 23043J   26095.17652487 -.00000003  00000+0 -38029-4 0  9994
2 56054  87.9180 258.5323 0002044  97.5170 262.6196 13.21759500148583
ONEWEB-0553             
1 56055U 23043K   26095.14884855  .00000033  00000+0  52602-4 0  9992
2 56055  87.9046 243.2885 0001341 104.8704 255.2576 13.16595116149365
ONEWEB-0554             
1 56056U 23043L   26094.90818837 -.00000089  00000+0 -26709-3 0  9994
2 56056  87.9043 243.3461 0001734 110.9048 249.2269 13.16595520149315
ONEWEB-0555             
1 56057U 23043M   26095.17417783  .00000188  00000+0  45943-3 0  9999
2 56057  87.9046 243.2788 0001134 102.6873 257.4384 13.16596026149353
ONEWEB-0557             
1 56058U 23043N   26095.11243067  .00000005  00000+0 -21041-4 0  9999
2 56058  87.9048 243.3028 0001481 146.8839 213.2385 13.16595699149346
ONEWEB-0558             
1 56059U 23043P   26095.16986505  .00000074  00000+0  14855-3 0  9995
2 56059  87.9182 258.5268 0002048  83.8845 276.2522 13.21790308148595
