[{"OBJECT_NAME":"ONEWEB-0675","OBJECT_ID":"2023-029AQ","EPOCH":"2026-04-05T02:52:34.785984","MEAN_MOTION":13.19727008,"ECCENTRICITY":0.0001668,"INCLINATION":87.9184,"RA_OF_ASC_NODE":319.5474,"ARG_OF_PERICENTER":73.8615,"MEAN_ANOMALY":286.2701,"EPHEMERIS_TYPE":0,"CLASSIFICATION_TYPE":"U","NORAD_CAT_ID":55834,"ELEMENT_SET_NO":999,"REV_AT_EPOCH":14928,"BSTAR":0.00031999,"MEAN_MOTION_DOT":1.41e-06,"MEAN_MOTION_DDOT":0.0},{"OBJECT_NAME":"ONEWEB-0720","OBJECT_ID":"2023-029AR","EPOCH":"2026-04-05T02:41:12.550848","MEAN_MOTION":13.1972756,"ECCENTRICITY":0.0002107,"INCLINATION":87.9182,"RA_OF_ASC_NODE":319.5493,"ARG_OF_PERICENTER":85.0267,"MEAN_ANOMALY":275.1106,"EPHEMERIS_TYPE":0,"CLASSIFICATION_TYPE":"U","NORAD_CAT_ID":55835,"ELEMENT_SET_NO":999,"REV_AT_EPOCH":14920,"BSTAR":0.00024188,"MEAN_MOTION_DOT":1.1e-06,"MEAN_MOTION_DDOT":0.0},{"OBJECT_NAME":"ONEWEB-0537","OBJECT_ID":"2023-043A","EPOCH":"2026-04-05T03:52:35.109408","MEAN_MOTION":13.16594972,"ECCENTRICITY":0.000153,"INCLINATION":87.9046,"RA_OF_ASC_NODE":243.2832,"ARG_OF_PERICENTER":97.2022,"MEAN_ANOMALY":262.9282,"EPHEMERIS_TYPE":0,"CLASSIFICATION_TYPE":"U","NORAD_CAT_ID":56046,"ELEMENT_SET_NO":999,"REV_AT_EPOCH":14935,"BSTAR":0.00039249,"MEAN_MOTION_DOT":1.63e-06,"MEAN_MOTION_DDOT":0.0},{"OBJECT_NAME":"ONEWEB-0538","OBJECT_ID":"2023-043B","EPOCH":"2026-04-05T03:43:27.169248","MEAN_MOTION":13.16595659,"ECCENTRICITY":0.0001755,"INCLINATION":87.9045,"RA_OF_ASC_NODE":243.2864,"ARG_OF_PERICENTER":91.0352,"MEAN_ANOMALY":269.098,"EPHEMERIS_TYPE":0,"CLASSIFICATION_TYPE":"U","NORAD_CAT_ID":56047,"ELEMENT_SET_NO":999,"REV_AT_EPOCH":14936,"BSTAR":0.00031447,"MEAN_MOTION_DOT":1.33e-06,"MEAN_MOTION_DDOT":0.0},{"OBJECT_NAME":"ONEWEB-0546","OBJECT_ID":"2023-043C","EPOCH":"2026-04-05T03:25:12.823392","MEAN_MOTION":13.16596726,"ECCENTRICITY":0.0001033,"INCLINATION":87.905,"RA_OF_ASC_NODE":243.2879,"ARG_OF_PERICENTER":95.0689,"MEAN_ANOMALY":265.056,"EPHEMERIS_TYPE":0,"CLASSIFICATION_TYPE":"U","NORAD_CAT_ID":56048,"ELEMENT_SET_NO":999,"REV_AT_EPOCH":14935,"BSTAR":8.4449e-05,"MEAN_MOTION_DOT":4.5e-07,"MEAN_MOTION_DDOT":0.0},{"OBJECT_NAME":"ONEWEB-0547","OBJECT_ID":"2023-043D","EPOCH":"2026-04-05T04:50:06.468000","MEAN_MOTION":13.21969276,"ECCENTRICITY":0.0001864,"INCLINATION":87.9185,"RA_OF_ASC_NODE":258.5126,"ARG_OF_PERICENTER":93.3376,"MEAN_ANOMALY":266.7971,"EPHEMERIS_TYPE":0,"CLASSIFICATION_TYPE":"U","NORAD_CAT_ID":56049,"ELEMENT_SET_NO":999,"REV_AT_EPOCH":14858,"BSTAR":0.0035329,"MEAN_MOTION_DOT":1.475e-05,"MEAN_MOTION_DDOT":0.0},{"OBJECT_NAME":"ONEWEB-0548","OBJECT_ID":"2023-043E","EPOCH":"2026-04-05T04:00:34.296768","MEAN_MOTION":13.1659604,"ECCENTRICITY":0.0001835,"INCLINATION":87.9043,"RA_OF_ASC_NODE":243.2817,"ARG_OF_PERICENTER":115.5302,"MEAN_ANOMALY":244.6018,"EPHEMERIS_TYPE":0,"CLASSIFICATION_TYPE":"U","NORAD_CAT_ID":56050,"ELEMENT_SET_NO":999,"REV_AT_EPOCH":14935,"BSTAR":0.00036563000000000003,"MEAN_MOTION_DOT":1.53e-06,"MEAN_MOTION_DDOT":0.0},{"OBJECT_NAME":"ONEWEB-0549","OBJECT_ID":"2023-043F","EPOCH":"2026-04-04T23:13:30.831744","MEAN_MOTION":13.2168758,"ECCENTRICITY":0.0001836,"INCLINATION":87.9182,"RA_OF_ASC_NODE":258.5702,"ARG_OF_PERICENTER":89.6708,"MEAN_ANOMALY":270.4636,"EPHEMERIS_TYPE":0,"CLASSIFICATION_TYPE":"U","NORAD_CAT_ID":56051,"ELEMENT_SET_NO":999,"REV_AT_EPOCH":14855,"BSTAR":-0.0011033,"MEAN_MOTION_DOT":-4.42e-06,"MEAN_MOTION_DDOT":0.0},{"OBJECT_NAME":"ONEWEB-0550","OBJECT_ID":"2023-043G","EPOCH":"2026-04-05T04:21:22.956480","MEAN_MOTION":13.21743317,"ECCENTRICITY":0.0001703,"INCLINATION":87.9182,"RA_OF_ASC_NODE":258.5239,"ARG_OF_PERICENTER":100.5139,"MEAN_ANOMALY":259.6187,"EPHEMERIS_TYPE":0,"CLASSIFICATION_TYPE":"U","NORAD_CAT_ID":56052,"ELEMENT_SET_NO":999,"REV_AT_EPOCH":14858,"BSTAR":-0.0009790600000000001,"MEAN_MOTION_DOT":-3.91e-06,"MEAN_MOTION_DDOT":0.0},{"OBJECT_NAME":"ONEWEB-0551","OBJECT_ID":"2023-043H","EPOCH":"2026-04-05T01:32:20.685984","MEAN_MOTION":13.15546889,"ECCENTRICITY":0.0001972,"INCLINATION":87.8926,"RA_OF_ASC_NODE":273.8207,"ARG_OF_PERICENTER":86.5834,"MEAN_ANOMALY":273.5522,"EPHEMERIS_TYPE":0,"CLASSIFICATION_TYPE":"U","NORAD_CAT_ID":56053,"ELEMENT_SET_NO":999,"REV_AT_EPOCH":14678,"BSTAR":-0.00041598000000000004,"MEAN_MOTION_DOT":-1.44e-06,"MEAN_MOTION_DDOT":0.0},{"OBJECT_NAME":"ONEWEB-0552","OBJECT_ID":"2023-043J","EPOCH":"2026-04-05T04:14:11.748768","MEAN_MOTION":13.217595,"ECCENTRICITY":0.0002044,"INCLINATION":87.918,"RA_OF_ASC_NODE":258.5323,"ARG_OF_PERICENTER":97.517,"MEAN_ANOMALY":262.6196,"EPHEMERIS_TYPE":0,"CLASSIFICATION_TYPE":"U","NORAD_CAT_ID":56054,"ELEMENT_SET_NO":999,"REV_AT_EPOCH":14858,"BSTAR":-3.8029000000000005e-05,"MEAN_MOTION_DOT":-3e-08,"MEAN_MOTION_DDOT":0.0},{"OBJECT_NAME":"ONEWEB-0553","OBJECT_ID":"2023-043K","EPOCH":"2026-04-05T03:34:20.514720","MEAN_MOTION":13.16595116,"ECCENTRICITY":0.0001341,"INCLINATION":87.9046,"RA_OF_ASC_NODE":243.2885,"ARG_OF_PERICENTER":104.8704,"MEAN_ANOMALY":255.2576,"EPHEMERIS_TYPE":0,"CLASSIFICATION_TYPE":"U","NORAD_CAT_ID":56055,"ELEMENT_SET_NO":999,"REV_AT_EPOCH":14936,"BSTAR":5.260200000000001e-05,"MEAN_MOTION_DOT":3.3e-07,"MEAN_MOTION_DDOT":0.0},{"OBJECT_NAME":"ONEWEB-0554","OBJECT_ID":"2023-043L","EPOCH":"2026-04-04T21:47:47.475168","MEAN_MOTION":13.1659552,"ECCENTRICITY":0.0001734,"INCLINATION":87.9043,"RA_OF_ASC_NODE":243.3461,"ARG_OF_PERICENTER":110.9048,"MEAN_ANOMALY":249.2269,"EPHEMERIS_TYPE":0,"CLASSIFICATION_TYPE":"U","NORAD_CAT_ID":56056,"ELEMENT_SET_NO":999,"REV_AT_EPOCH":14931,"BSTAR":-0.00026709,"MEAN_MOTION_DOT":-8.9e-07,"MEAN_MOTION_DDOT":0.0},{"OBJECT_NAME":"ONEWEB-0555","OBJECT_ID":"2023-043M","EPOCH":"2026-04-05T04:10:48.964512","MEAN_MOTION":13.16596026,"ECCENTRICITY":0.0001134,"INCLINATION":87.9046,"RA_OF_ASC_NODE":243.2788,"ARG_OF_PERICENTER":102.6873,"MEAN_ANOMALY":257.4384,"EPHEMERIS_TYPE":0,"CLASSIFICATION_TYPE":"U","NORAD_CAT_ID":56057,"ELEMENT_SET_NO":999,"REV_AT_EPOCH":14935,"BSTAR":0.00045943000000000004,"MEAN_MOTION_DOT":1.88e-06,"MEAN_MOTION_DDOT":0.0},{"OBJECT_NAME":"ONEWEB-0557","OBJECT_ID":"2023-043N","EPOCH":"2026-04-05T02:41:54.009888","MEAN_MOTION":13.16595699,"ECCENTRICITY":0.0001481,"INCLINATION":87.9048,"RA_OF_ASC_NODE":243.3028,"ARG_OF_PERICENTER":146.8839,"MEAN_ANOMALY":213.2385,"EPHEMERIS_TYPE":0,"CLASSIFICATION_TYPE":"U","NORAD_CAT_ID":56058,"ELEMENT_SET_NO":999,"REV_AT_EPOCH":14934,"BSTAR":-2.1041000000000004e-05,"MEAN_MOTION_DOT":5e-08,"MEAN_MOTION_DDOT":0.0},{"OBJECT_NAME":"ONEWEB-0558","OBJECT_ID":"2023-043P","EPOCH":"2026-04-05T04:04:36.340320","MEAN_MOTION":13.21790308,"ECCENTRICITY":0.0002048,"INCLINATION":87.9182,"RA_OF_ASC_NODE":258.5268,"ARG_OF_PERICENTER":83.8845,"MEAN_ANOMALY":276.2522,"EPHEMERIS_TYPE":0,"CLASSIFICATION_TYPE":"U","NORAD_CAT_ID":56059,"ELEMENT_SET_NO":999,"REV_AT_EPOCH":14859,"BSTAR":0.00014854999999999998,"MEAN_MOTION_DOT":7.4e-07,"MEAN_MOTION_DDOT":0.0}]